stk.v.4.3

BEGIN Ephemeris

NumberOfEphemerisPoints 1

ScienarioEpoch hello
InterpolationMethod Lagrange
InterpolationOrder 7
CentralBody Earth
CoordinateSystem J2000

EphemerisTimePosVel

0 1.8475683476587346 2 3 6 5 4

END Ephemeris
